[{"OBJECT_NAME":"STARLINK-34236","OBJECT_ID":"2025-144V","EPOCH":"2026-03-09T13:42:59.202720","MEAN_MOTION":15.30196896,"ECCENTRICITY":0.0001155,"INCLINATION":53.16,"RA_OF_ASC_NODE":181.5955,"ARG_OF_PERICENTER":78.1403,"MEAN_ANOMALY":281.9727,"EPHEMERIS_TYPE":0,"CLASSIFICATION_TYPE":"U","NORAD_CAT_ID":64743,"ELEMENT_SET_NO":999,"REV_AT_EPOCH":3969,"BSTAR":0.00070619,"MEAN_MOTION_DOT":0.00020612,"MEAN_MOTION_DDOT":0},{"OBJECT_NAME":"GEOSCAN 3 (RS92S3)","OBJECT_ID":"2025-155T","EPOCH":"2026-03-09T22:52:10.587648","MEAN_MOTION":15.31696739,"ECCENTRICITY":0.00068078,"INCLINATION":97.4455,"RA_OF_ASC_NODE":37.9971,"ARG_OF_PERICENTER":154.1387,"MEAN_ANOMALY":206.0196,"EPHEMERIS_TYPE":0,"CLASSIFICATION_TYPE":"U","NORAD_CAT_ID":64893,"ELEMENT_SET_NO":999,"REV_AT_EPOCH":6564,"BSTAR":0.00078414081,"MEAN_MOTION_DOT":0.00023985,"MEAN_MOTION_DDOT":0}]
